COSMOS 1892             
1 18421U 87088A   25300.81998972  .00204361  13672-4  69457-3 0  9993
2 18421  82.4699  95.3403 0004691 330.2984  29.8022 15.89750336 83976
SL-14 R/B               
1 18749U 88001B   25300.49938757  .00000638  00000+0  71303-4 0  9992
2 18749  82.5118 320.6497 0017086 322.9785  37.0251 14.85350109 22250
COSMOS 1933             
1 18958U 88020A   25300.64095595  .00006083  00000+0  31024-3 0  9991
2 18958  82.5166  22.4019 0003113 312.8176  47.2795 15.16569683 30057
SL-3 R/B                
1 19046U 88032B   25300.86257573  .00007242  00000+0  35610-3 0  9996
2 19046  97.5042 279.9348 0026410 341.1632  18.8622 15.18023188 31945
SL-16 R/B               
1 19120U 88039B   25300.52256593  .00000123  00000+0  80968-4 0  9998
2 19120  71.0164 350.1236 0022117 190.5424 169.5240 14.19585461939486
COSMOS 1953             
1 19210U 88050A   25300.49229153  .00006492  00000+0  24947-3 0  9998
2 19210  82.5068 291.9675 0010394 225.4648 134.5742 15.26197405 17454
SL-8 R/B                
1 19257U 88053B   25300.66901131  .00000365  00000+0  12698-3 0  9997
2 19257  74.0492 357.6316 0020715 214.4542 298.1211 14.38817776957467
COSMOS 1975             
1 19573U 88093A   25300.87820471  .00013136  00000+0  51878-3 0  9995
2 19573  82.5202 250.6987 0009367 283.2080  76.8112 15.25359438999132
SL-14 R/B               
1 19574U 88093B   25300.70718274  .00000605  00000+0  67033-4 0  9993
2 19574  82.5320 166.8635 0022098 116.1545 332.9753 14.85481326981290
SL-16 R/B               
1 19650U 88102B   25300.82760626  .00000334  00000+0  19305-3 0  9997
2 19650  70.9994  71.0424 0015575 220.0740 139.9236 14.16127927908085
INTERCOSMOS 24          
1 20261U 89080A   25300.66148539  .00000731  00000+0  21704-3 0  9995
2 20261  82.6103 190.9142 1187545 241.4468 106.2140 12.59343440650054
SL-14 R/B               
1 20262U 89080C   25300.73670029  .00000293  00000+0  79029-4 0  9995
2 20262  82.5904 258.5443 1231472 128.6562 243.1388 12.50368042643534
