CCSDS_OMM_VERS = 2.0
CREATION_DATE  = 
ORIGINATOR     = 

OBJECT_NAME    = COSMOS 1892
OBJECT_ID      = 1987-088A
CENTER_NAME    = EARTH
REF_FRAME      = TEME
TIME_SYSTEM    = UTC
MEAN_ELEMENT_THEORY = SGP/SGP4

EPOCH          = 2025-10-27T19:40:47.111808
MEAN_MOTION    = 15.89750336
ECCENTRICITY   = .0004691
INCLINATION    = 82.4699
RA_OF_ASC_NODE = 95.3403
ARG_OF_PERICENTER = 330.2984
MEAN_ANOMALY   = 29.8022

EPHEMERIS_TYPE = 0
CLASSIFICATION_TYPE = U
NORAD_CAT_ID   = 18421
ELEMENT_SET_NO = 999
REV_AT_EPOCH   = 8397
BSTAR          = .69457E-3
MEAN_MOTION_DOT = .204361E-2
MEAN_MOTION_DDOT = .13672E-4

CCSDS_OMM_VERS = 2.0
CREATION_DATE  = 
ORIGINATOR     = 

OBJECT_NAME    = SL-14 R/B
OBJECT_ID      = 1988-001B
CENTER_NAME    = EARTH
REF_FRAME      = TEME
TIME_SYSTEM    = UTC
MEAN_ELEMENT_THEORY = SGP/SGP4

EPOCH          = 2025-10-27T11:59:07.086048
MEAN_MOTION    = 14.85350109
ECCENTRICITY   = .0017086
INCLINATION    = 82.5118
RA_OF_ASC_NODE = 320.6497
ARG_OF_PERICENTER = 322.9785
MEAN_ANOMALY   = 37.0251

EPHEMERIS_TYPE = 0
CLASSIFICATION_TYPE = U
NORAD_CAT_ID   = 18749
ELEMENT_SET_NO = 999
REV_AT_EPOCH   = 2225
BSTAR          = .71303E-4
MEAN_MOTION_DOT = .638E-5
MEAN_MOTION_DDOT = 0

CCSDS_OMM_VERS = 2.0
CREATION_DATE  = 
ORIGINATOR     = 

OBJECT_NAME    = COSMOS 1933
OBJECT_ID      = 1988-020A
CENTER_NAME    = EARTH
REF_FRAME      = TEME
TIME_SYSTEM    = UTC
MEAN_ELEMENT_THEORY = SGP/SGP4

EPOCH          = 2025-10-27T15:22:58.594080
MEAN_MOTION    = 15.16569683
ECCENTRICITY   = .0003113
INCLINATION    = 82.5166
RA_OF_ASC_NODE = 22.4019
ARG_OF_PERICENTER = 312.8176
MEAN_ANOMALY   = 47.2795

EPHEMERIS_TYPE = 0
CLASSIFICATION_TYPE = U
NORAD_CAT_ID   = 18958
ELEMENT_SET_NO = 999
REV_AT_EPOCH   = 3005
BSTAR          = .31024E-3
MEAN_MOTION_DOT = .6083E-4
MEAN_MOTION_DDOT = 0

CCSDS_OMM_VERS = 2.0
CREATION_DATE  = 
ORIGINATOR     = 

OBJECT_NAME    = SL-3 R/B
OBJECT_ID      = 1988-032B
CENTER_NAME    = EARTH
REF_FRAME      = TEME
TIME_SYSTEM    = UTC
MEAN_ELEMENT_THEORY = SGP/SGP4

EPOCH          = 2025-10-27T20:42:06.543072
MEAN_MOTION    = 15.18023188
ECCENTRICITY   = .002641
INCLINATION    = 97.5042
RA_OF_ASC_NODE = 279.9348
ARG_OF_PERICENTER = 341.1632
MEAN_ANOMALY   = 18.8622

EPHEMERIS_TYPE = 0
CLASSIFICATION_TYPE = U
NORAD_CAT_ID   = 19046
ELEMENT_SET_NO = 999
REV_AT_EPOCH   = 3194
BSTAR          = .3561E-3
MEAN_MOTION_DOT = .7242E-4
MEAN_MOTION_DDOT = 0

CCSDS_OMM_VERS = 2.0
CREATION_DATE  = 
ORIGINATOR     = 

OBJECT_NAME    = SL-16 R/B
OBJECT_ID      = 1988-039B
CENTER_NAME    = EARTH
REF_FRAME      = TEME
TIME_SYSTEM    = UTC
MEAN_ELEMENT_THEORY = SGP/SGP4

EPOCH          = 2025-10-27T12:32:29.696352
MEAN_MOTION    = 14.19585461
ECCENTRICITY   = .0022117
INCLINATION    = 71.0164
RA_OF_ASC_NODE = 350.1236
ARG_OF_PERICENTER = 190.5424
MEAN_ANOMALY   = 169.5240

EPHEMERIS_TYPE = 0
CLASSIFICATION_TYPE = U
NORAD_CAT_ID   = 19120
ELEMENT_SET_NO = 999
REV_AT_EPOCH   = 93948
BSTAR          = .80968E-4
MEAN_MOTION_DOT = .123E-5
MEAN_MOTION_DDOT = 0

CCSDS_OMM_VERS = 2.0
CREATION_DATE  = 
ORIGINATOR     = 

OBJECT_NAME    = COSMOS 1953
OBJECT_ID      = 1988-050A
CENTER_NAME    = EARTH
REF_FRAME      = TEME
TIME_SYSTEM    = UTC
MEAN_ELEMENT_THEORY = SGP/SGP4

EPOCH          = 2025-10-27T11:48:53.988192
MEAN_MOTION    = 15.26197405
ECCENTRICITY   = .0010394
INCLINATION    = 82.5068
RA_OF_ASC_NODE = 291.9675
ARG_OF_PERICENTER = 225.4648
MEAN_ANOMALY   = 134.5742

EPHEMERIS_TYPE = 0
CLASSIFICATION_TYPE = U
NORAD_CAT_ID   = 19210
ELEMENT_SET_NO = 999
REV_AT_EPOCH   = 1745
BSTAR          = .24947E-3
MEAN_MOTION_DOT = .6492E-4
MEAN_MOTION_DDOT = 0

CCSDS_OMM_VERS = 2.0
CREATION_DATE  = 
ORIGINATOR     = 

OBJECT_NAME    = SL-8 R/B
OBJECT_ID      = 1988-053B
CENTER_NAME    = EARTH
REF_FRAME      = TEME
TIME_SYSTEM    = UTC
MEAN_ELEMENT_THEORY = SGP/SGP4

EPOCH          = 2025-10-27T16:03:22.577184
MEAN_MOTION    = 14.38817776
ECCENTRICITY   = .0020715
INCLINATION    = 74.0492
RA_OF_ASC_NODE = 357.6316
ARG_OF_PERICENTER = 214.4542
MEAN_ANOMALY   = 298.1211

EPHEMERIS_TYPE = 0
CLASSIFICATION_TYPE = U
NORAD_CAT_ID   = 19257
ELEMENT_SET_NO = 999
REV_AT_EPOCH   = 95746
BSTAR          = .12698E-3
MEAN_MOTION_DOT = .365E-5
MEAN_MOTION_DDOT = 0

CCSDS_OMM_VERS = 2.0
CREATION_DATE  = 
ORIGINATOR     = 

OBJECT_NAME    = COSMOS 1975
OBJECT_ID      = 1988-093A
CENTER_NAME    = EARTH
REF_FRAME      = TEME
TIME_SYSTEM    = UTC
MEAN_ELEMENT_THEORY = SGP/SGP4

EPOCH          = 2025-10-27T21:04:36.886944
MEAN_MOTION    = 15.25359438
ECCENTRICITY   = .0009367
INCLINATION    = 82.5202
RA_OF_ASC_NODE = 250.6987
ARG_OF_PERICENTER = 283.2080
MEAN_ANOMALY   = 76.8112

EPHEMERIS_TYPE = 0
CLASSIFICATION_TYPE = U
NORAD_CAT_ID   = 19573
ELEMENT_SET_NO = 999
REV_AT_EPOCH   = 99913
BSTAR          = .51878E-3
MEAN_MOTION_DOT = .13136E-3
MEAN_MOTION_DDOT = 0

CCSDS_OMM_VERS = 2.0
CREATION_DATE  = 
ORIGINATOR     = 

OBJECT_NAME    = SL-14 R/B
OBJECT_ID      = 1988-093B
CENTER_NAME    = EARTH
REF_FRAME      = TEME
TIME_SYSTEM    = UTC
MEAN_ELEMENT_THEORY = SGP/SGP4

EPOCH          = 2025-10-27T16:58:20.588736
MEAN_MOTION    = 14.85481326
ECCENTRICITY   = .0022098
INCLINATION    = 82.5320
RA_OF_ASC_NODE = 166.8635
ARG_OF_PERICENTER = 116.1545
MEAN_ANOMALY   = 332.9753

EPHEMERIS_TYPE = 0
CLASSIFICATION_TYPE = U
NORAD_CAT_ID   = 19574
ELEMENT_SET_NO = 999
REV_AT_EPOCH   = 98129
BSTAR          = .67033E-4
MEAN_MOTION_DOT = .605E-5
MEAN_MOTION_DDOT = 0

CCSDS_OMM_VERS = 2.0
CREATION_DATE  = 
ORIGINATOR     = 

OBJECT_NAME    = SL-16 R/B
OBJECT_ID      = 1988-102B
CENTER_NAME    = EARTH
REF_FRAME      = TEME
TIME_SYSTEM    = UTC
MEAN_ELEMENT_THEORY = SGP/SGP4

EPOCH          = 2025-10-27T19:51:45.180864
MEAN_MOTION    = 14.16127927
ECCENTRICITY   = .0015575
INCLINATION    = 70.9994
RA_OF_ASC_NODE = 71.0424
ARG_OF_PERICENTER = 220.0740
MEAN_ANOMALY   = 139.9236

EPHEMERIS_TYPE = 0
CLASSIFICATION_TYPE = U
NORAD_CAT_ID   = 19650
ELEMENT_SET_NO = 999
REV_AT_EPOCH   = 90808
BSTAR          = .19305E-3
MEAN_MOTION_DOT = .334E-5
MEAN_MOTION_DDOT = 0

CCSDS_OMM_VERS = 2.0
CREATION_DATE  = 
ORIGINATOR     = 

OBJECT_NAME    = INTERCOSMOS 24
OBJECT_ID      = 1989-080A
CENTER_NAME    = EARTH
REF_FRAME      = TEME
TIME_SYSTEM    = UTC
MEAN_ELEMENT_THEORY = SGP/SGP4

EPOCH          = 2025-10-27T15:52:32.337696
MEAN_MOTION    = 12.59343440
ECCENTRICITY   = .1187545
INCLINATION    = 82.6103
RA_OF_ASC_NODE = 190.9142
ARG_OF_PERICENTER = 241.4468
MEAN_ANOMALY   = 106.2140

EPHEMERIS_TYPE = 0
CLASSIFICATION_TYPE = U
NORAD_CAT_ID   = 20261
ELEMENT_SET_NO = 999
REV_AT_EPOCH   = 65005
BSTAR          = .21704E-3
MEAN_MOTION_DOT = .731E-5
MEAN_MOTION_DDOT = 0

CCSDS_OMM_VERS = 2.0
CREATION_DATE  = 
ORIGINATOR     = 

OBJECT_NAME    = SL-14 R/B
OBJECT_ID      = 1989-080C
CENTER_NAME    = EARTH
REF_FRAME      = TEME
TIME_SYSTEM    = UTC
MEAN_ELEMENT_THEORY = SGP/SGP4

EPOCH          = 2025-10-27T17:40:50.905056
MEAN_MOTION    = 12.50368042
ECCENTRICITY   = .1231472
INCLINATION    = 82.5904
RA_OF_ASC_NODE = 258.5443
ARG_OF_PERICENTER = 128.6562
MEAN_ANOMALY   = 243.1388

EPHEMERIS_TYPE = 0
CLASSIFICATION_TYPE = U
NORAD_CAT_ID   = 20262
ELEMENT_SET_NO = 999
REV_AT_EPOCH   = 64353
BSTAR          = .79029E-4
MEAN_MOTION_DOT = .293E-5
MEAN_MOTION_DDOT = 0

